{
  "type": "FeatureCollection",
  "features": [
    {
      "type": "Feature",
      "properties": {
        "norad_id": 32376,
        "name": "COSMO-SKYMED 2",
        "group": "resource",
        "lat": 52.79323696306094,
        "lon": 160.71062159218906,
        "alt_km": 616.775665702914,
        "timestamp": "2025-12-15T22:44:28.579936+00:00",
        "meta_object_name": "COSMO-SKYMED 2",
        "meta_object_id": "2007-059A",
        "meta_epoch": "2025-12-15T09:32:18.881664",
        "meta_mean_motion": 14.82145855,
        "meta_eccentricity": 0.00013888,
        "meta_inclination": 97.8811,
        "meta_ra_of_asc_node": 170.6813,
        "meta_arg_of_pericenter": 83.6331,
        "meta_mean_anomaly": 276.504,
        "meta_ephemeris_type": 0,
        "meta_classification_type": "U",
        "meta_norad_cat_id": 32376,
        "meta_element_set_no": 999,
        "meta_rev_at_epoch": 97477,
        "meta_bstar": 5.1534624e-05,
        "meta_mean_motion_dot": 3.58e-06,
        "meta_mean_motion_ddot": 0,
        "tle_line1": "1 32376U 07059A   25349.39744076  .00000358  00000+0  51535-4 0  9993",
        "tle_line2": "2 32376  97.8811 170.6813 0001388  83.6331 276.5040 14.82145855974778"
      },
      "geometry": {
        "type": "Point",
        "coordinates": [
          160.71062159218906,
          52.79323696306094
        ]
      }
    },
    {
      "type": "Feature",
      "properties": {
        "norad_id": 32382,
        "name": "RADARSAT-2",
        "group": "resource",
        "lat": 57.88335914671966,
        "lon": -171.59094357507325,
        "alt_km": 785.5439410172112,
        "timestamp": "2025-12-15T22:44:28.579947+00:00",
        "meta_object_name": "RADARSAT-2",
        "meta_object_id": "2007-061A",
        "meta_epoch": "2025-12-15T07:03:49.425120",
        "meta_mean_motion": 14.29982539,
        "meta_eccentricity": 0.00011226,
        "meta_inclination": 98.5802,
        "meta_ra_of_asc_node": 353.8477,
        "meta_arg_of_pericenter": 85.7472,
        "meta_mean_anomaly": 274.3839,
        "meta_ephemeris_type": 0,
        "meta_classification_type": "U",
        "meta_norad_cat_id": 32382,
        "meta_element_set_no": 999,
        "meta_rev_at_epoch": 93967,
        "meta_bstar": 4.089269e-05,
        "meta_mean_motion_dot": 6.2e-07,
        "meta_mean_motion_ddot": 0,
        "tle_line1": "1 32382U 07061A   25349.29432205  .00000062  00000+0  40893-4 0  9997",
        "tle_line2": "2 32382  98.5802 353.8477 0001122  85.7472 274.3839 14.29982539939670"
      },
      "geometry": {
        "type": "Point",
        "coordinates": [
          -171.59094357507325,
          57.88335914671966
        ]
      }
    },
    {
      "type": "Feature",
      "properties": {
        "norad_id": 32783,
        "name": "CARTOSAT-2A",
        "group": "resource",
        "lat": 23.438845731410858,
        "lon": -136.92500088600138,
        "alt_km": 639.9639467511652,
        "timestamp": "2025-12-15T22:44:28.579968+00:00",
        "meta_object_name": "CARTOSAT-2A",
        "meta_object_id": "2008-021A",
        "meta_epoch": "2025-12-15T09:02:49.857216",
        "meta_mean_motion": 14.78944864,
        "meta_eccentricity": 0.0011651,
        "meta_inclination": 97.7933,
        "meta_ra_of_asc_node": 39.1182,
        "meta_arg_of_pericenter": 356.2608,
        "meta_mean_anomaly": 3.8515,
        "meta_ephemeris_type": 0,
        "meta_classification_type": "U",
        "meta_norad_cat_id": 32783,
        "meta_element_set_no": 999,
        "meta_rev_at_epoch": 95163,
        "meta_bstar": 0.00019319233,
        "meta_mean_motion_dot": 1.376e-05,
        "meta_mean_motion_ddot": 0,
        "tle_line1": "1 32783U 08021A   25349.37696594  .00001376  00000+0  19319-3 0  9998",
        "tle_line2": "2 32783  97.7933  39.1182 0011651 356.2608   3.8515 14.78944864951632"
      },
      "geometry": {
        "type": "Point",
        "coordinates": [
          -136.92500088600138,
          23.438845731410858
        ]
      }
    },
    {
      "type": "Feature",
      "properties": {
        "norad_id": 33320,
        "name": "HUANJING 1A (HJ-1A)",
        "group": "resource",
        "lat": 71.48873766978905,
        "lon": -45.569384674951195,
        "alt_km": 602.4879693862276,
        "timestamp": "2025-12-15T22:44:28.579989+00:00",
        "meta_object_name": "HUANJING 1A (HJ-1A)",
        "meta_object_id": "2008-041A",
        "meta_epoch": "2025-12-15T07:50:39.020064",
        "meta_mean_motion": 14.8340641,
        "meta_eccentricity": 0.00200094,
        "meta_inclination": 97.6541,
        "meta_ra_of_asc_node": 337.5176,
        "meta_arg_of_pericenter": 26.1998,
        "meta_mean_anomaly": 334.0224,
        "meta_ephemeris_type": 0,
        "meta_classification_type": "U",
        "meta_norad_cat_id": 33320,
        "meta_element_set_no": 999,
        "meta_rev_at_epoch": 93114,
        "meta_bstar": 0.00028289196,
        "meta_mean_motion_dot": 2.278e-05,
        "meta_mean_motion_ddot": 0,
        "tle_line1": "1 33320U 08041A   25349.32684051  .00002278  00000+0  28289-3 0  9996",
        "tle_line2": "2 33320  97.6541 337.5176 0020009  26.1998 334.0224 14.83406410931140"
      },
      "geometry": {
        "type": "Point",
        "coordinates": [
          -45.569384674951195,
          71.48873766978905
        ]
      }
    },
    {
      "type": "Feature",
      "properties": {
        "norad_id": 33321,
        "name": "HUANJING 1B (HJ-1B)",
        "group": "resource",
        "lat": -71.30463112336233,
        "lon": 5.172066301606215,
        "alt_km": 647.635039383209,
        "timestamp": "2025-12-15T22:44:28.580030+00:00",
        "meta_object_name": "HUANJING 1B (HJ-1B)",
        "meta_object_id": "2008-041B",
        "meta_epoch": "2025-12-15T08:29:39.825888",
        "meta_mean_motion": 14.82833651,
        "meta_eccentricity": 0.00382064,
        "meta_inclination": 97.6402,
        "meta_ra_of_asc_node": 341.2339,
        "meta_arg_of_pericenter": 67.4726,
        "meta_mean_anomaly": 293.0525,
        "meta_ephemeris_type": 0,
        "meta_classification_type": "U",
        "meta_norad_cat_id": 33321,
        "meta_element_set_no": 999,
        "meta_rev_at_epoch": 93116,
        "meta_bstar": 0.00029321683,
        "meta_mean_motion_dot": 2.352e-05,
        "meta_mean_motion_ddot": 0,
        "tle_line1": "1 33321U 08041B   25349.35393317  .00002352  00000+0  29322-3 0  9994",
        "tle_line2": "2 33321  97.6402 341.2339 0038206  67.4726 293.0525 14.82833651931165"
      },
      "geometry": {
        "type": "Point",
        "coordinates": [
          5.172066301606215,
          -71.30463112336233
        ]
      }
    },
    {
      "type": "Feature",
      "properties": {
        "norad_id": 33331,
        "name": "GEOEYE 1",
        "group": "resource",
        "lat": 64.38940352136032,
        "lon": 43.84794595418201,
        "alt_km": 673.4823005861808,
        "timestamp": "2025-12-15T22:44:28.580050+00:00",
        "meta_object_name": "GEOEYE 1",
        "meta_object_id": "2008-042A",
        "meta_epoch": "2025-12-15T07:41:12.560064",
        "meta_mean_motion": 14.64703932,
        "meta_eccentricity": 0.00027797,
        "meta_inclination": 98.1253,
        "meta_ra_of_asc_node": 60.5688,
        "meta_arg_of_pericenter": 274.8039,
        "meta_mean_anomaly": 85.2846,
        "meta_ephemeris_type": 0,
        "meta_classification_type": "U",
        "meta_norad_cat_id": 33331,
        "meta_element_set_no": 999,
        "meta_rev_at_epoch": 92323,
        "meta_bstar": 0.00012485283,
        "meta_mean_motion_dot": 6.17e-06,
        "meta_mean_motion_ddot": 0,
        "tle_line1": "1 33331U 08042A   25349.32028426  .00000617  00000+0  12485-3 0  9993",
        "tle_line2": "2 33331  98.1253  60.5688 0002779 274.8039  85.2846 14.64703932923235"
      },
      "geometry": {
        "type": "Point",
        "coordinates": [
          43.84794595418201,
          64.38940352136032
        ]
      }
    },
    {
      "type": "Feature",
      "properties": {
        "norad_id": 33396,
        "name": "THEOS",
        "group": "resource",
        "lat": 51.83963079652261,
        "lon": -120.97144721748279,
        "alt_km": 819.4700178462272,
        "timestamp": "2025-12-15T22:44:28.580063+00:00",
        "meta_object_name": "THEOS",
        "meta_object_id": "2008-049A",
        "meta_epoch": "2025-12-15T08:36:58.738752",
        "meta_mean_motion": 14.20097845,
        "meta_eccentricity": 0.00011486,
        "meta_inclination": 98.5868,
        "meta_ra_of_asc_node": 47.3714,
        "meta_arg_of_pericenter": 96.7754,
        "meta_mean_anomaly": 263.3553,
        "meta_ephemeris_type": 0,
        "meta_classification_type": "U",
        "meta_norad_cat_id": 33396,
        "meta_element_set_no": 999,
        "meta_rev_at_epoch": 89187,
        "meta_bstar": 0.00014119952,
        "meta_mean_motion_dot": 2.58e-06,
        "meta_mean_motion_ddot": 0,
        "tle_line1": "1 33396U 08049A   25349.35901318  .00000258  00000+0  14120-3 0  9993",
        "tle_line2": "2 33396  98.5868  47.3714 0001148  96.7754 263.3553 14.20097845891878"
      },
      "geometry": {
        "type": "Point",
        "coordinates": [
          -120.97144721748279,
          51.83963079652261
        ]
      }
    }
  ]
}